start=new Date('2021-10-20T00:00:00.000Z').valueOf();
sats=[{"OBJECT_NAME":"STARLINK-1499","TIME_SYSTEM":"UTC","SEMIMAJOR_AXIS":"6925.371","RCS_SIZE":"LARGE","MEAN_MOTION_DOT":"0.00000233","PERIOD":"95.593","MEAN_ELEMENT_THEORY":"SGP4","CLASSIFICATION_TYPE":"U","RA_OF_ASC_NODE":"209.2114","SITE":"AFETR","APOAPSIS":"548.408","EPHEMERIS_TYPE":"0","LAUNCH_DATE":"2020-06-13","GP_ID":"187569438","NORAD_CAT_ID":"45762","TLE_LINE1":"1 45762U 20038AJ  21292.48334459  .00000233  00000-0  34556-4 0  9998","INCLINATION":"53.0544","MEAN_MOTION":"15.06392708","FILE":"3171120","ARG_OF_PERICENTER":"71.3280","ELEMENT_SET_NO":"999","BSTAR":"0.00003455600000","ECCENTRICITY":"0.00016930","DECAY_DATE":null,"TLE_LINE2":"2 45762  53.0544 209.2114 0001693  71.3280 288.7893 15.06392708 74991","PERIAPSIS":"546.063","REV_AT_EPOCH":"7499","CENTER_NAME":"EARTH","COUNTRY_CODE":"US","OBJECT_ID":"2020-038AJ","EPOCH":"2021-10-19T11:36:00.972576","OBJECT_TYPE":"PAYLOAD","REF_FRAME":"TEME","MEAN_MOTION_DDOT":"0.0000000000000","MEAN_ANOMALY":"288.7893"},{"SEMIMAJOR_AXIS":"6748.837","RCS_SIZE":"LARGE","MEAN_MOTION_DOT":"0.00005218","PERIOD":"91.961","OBJECT_NAME":"STARLINK-1501","TIME_SYSTEM":"UTC","APOAPSIS":"372.762","MEAN_ELEMENT_THEORY":"SGP4","CLASSIFICATION_TYPE":"U","RA_OF_ASC_NODE":"157.9583","SITE":"AFETR","NORAD_CAT_ID":"45763","GP_ID":"187629730","EPHEMERIS_TYPE":"0","LAUNCH_DATE":"2020-06-13","INCLINATION":"53.0527","MEAN_MOTION":"15.65883242","FILE":"3172644","TLE_LINE1":"1 45763U 20038AK  21292.85873606  .00005218  00000-0  55703-4 0  9997","ELEMENT_SET_NO":"999","ECCENTRICITY":"0.00030520","BSTAR":"0.00005570300000","DECAY_DATE":null,"TLE_LINE2":"2 45763  53.0527 157.9583 0003052  23.2591 336.8561 15.65883242 75939","ARG_OF_PERICENTER":"23.2591","REV_AT_EPOCH":"7593","CENTER_NAME":"EARTH","PERIAPSIS":"368.642","EPOCH":"2021-10-19T20:36:34.795584","OBJECT_TYPE":"PAYLOAD","COUNTRY_CODE":"US","OBJECT_ID":"2020-038AK","MEAN_ANOMALY":"336.8561","MEAN_MOTION_DDOT":"0.0000000000000","REF_FRAME":"TEME"},{"CENTER_NAME":"EARTH","REV_AT_EPOCH":"7499","PERIAPSIS":"545.905","DECAY_DATE":null,"TLE_LINE2":"2 45764  53.0536 209.2334 0001849  62.9664 297.1514 15.06409009 74990","ELEMENT_SET_NO":"999","BSTAR":"0.00011712000000","ECCENTRICITY":"0.00018490","ARG_OF_PERICENTER":"62.9664","MEAN_ANOMALY":"297.1514","MEAN_MOTION_DDOT":"0.0000000000000","REF_FRAME":"TEME","OBJECT_TYPE":"PAYLOAD","EPOCH":"2021-10-19T11:25:24.181248","OBJECT_ID":"2020-038AL","COUNTRY_CODE":"US","APOAPSIS":"548.466","CLASSIFICATION_TYPE":"U","RA_OF_ASC_NODE":"209.2334","SITE":"AFETR","MEAN_ELEMENT_THEORY":"SGP4","PERIOD":"95.592","SEMIMAJOR_AXIS":"6925.321","MEAN_MOTION_DOT":"0.00001464","RCS_SIZE":"LARGE","TIME_SYSTEM":"UTC","OBJECT_NAME":"STARLINK-1502","INCLINATION":"53.0536","FILE":"3171120","MEAN_MOTION":"15.06409009","TLE_LINE1":"1 45764U 20038AL  21292.47597432  .00001464  00000-0  11712-3 0  9996","GP_ID":"187570440","NORAD_CAT_ID":"45764","EPHEMERIS_TYPE":"0","LAUNCH_DATE":"2020-06-13"},{"TLE_LINE1":"1 45765U 20038AM  21292.91958457  .01353330  95998-3  29471-2 0  9990","INCLINATION":"53.0486","FILE":"3172611","MEAN_MOTION":"15.97865028","EPHEMERIS_TYPE":"0","LAUNCH_DATE":"2020-06-13","NORAD_CAT_ID":"45765","GP_ID":"187609060","MEAN_ELEMENT_THEORY":"SGP4","CLASSIFICATION_TYPE":"U","RA_OF_ASC_NODE":"176.0942","SITE":"AFETR","APOAPSIS":"283.231","OBJECT_NAME":"STARLINK-1508","TIME_SYSTEM":"UTC","SEMIMAJOR_AXIS":"6658.480","RCS_SIZE":"LARGE","MEAN_MOTION_DOT":"0.01353330","PERIOD":"90.120","REF_FRAME":"TEME","MEAN_MOTION_DDOT":"0.0009599800000","MEAN_ANOMALY":"242.9355","COUNTRY_CODE":"US","OBJECT_ID":"2020-038AM","EPOCH":"2021-10-19T22:04:12.106848","OBJECT_TYPE":"PAYLOAD","PERIAPSIS":"277.459","REV_AT_EPOCH":"7641","CENTER_NAME":"EARTH","ARG_OF_PERICENTER":"229.0323","ELEMENT_SET_NO":"999","BSTAR":"0.00294710000000","ECCENTRICITY":"0.00043340","DECAY_DATE":null,"TLE_LINE2":"2 45765  53.0486 176.0942 0004334 229.0323 242.9355 15.97865028 76418"},{"PERIAPSIS":"545.949","REV_AT_EPOCH":"7504","CENTER_NAME":"EARTH","ARG_OF_PERICENTER":"67.5004","BSTAR":"0.00005946700000","ECCENTRICITY":"0.00018670","ELEMENT_SET_NO":"999","TLE_LINE2":"2 45766  53.0558 207.2096 0001867  67.5004 292.6182 15.06390762 75041","DECAY_DATE":null,"REF_FRAME":"TEME","MEAN_MOTION_DDOT":"0.0000000000000","MEAN_ANOMALY":"292.6182","COUNTRY_CODE":"US","OBJECT_ID":"2020-038AN","EPOCH":"2021-10-19T22:18:15.672384","OBJECT_TYPE":"PAYLOAD","MEAN_ELEMENT_THEORY":"SGP4","SITE":"AFETR","RA_OF_ASC_NODE":"207.2096","CLASSIFICATION_TYPE":"U","APOAPSIS":"548.535","OBJECT_NAME":"STARLINK-1509","TIME_SYSTEM":"UTC","MEAN_MOTION_DOT":"0.00000604","RCS_SIZE":"LARGE","SEMIMAJOR_AXIS":"6925.377","PERIOD":"95.593","TLE_LINE1":"1 45766U 20038AN  21292.92934806  .00000604  00000-0  59467-4 0  9993","MEAN_MOTION":"15.06390762","FILE":"3172644","INCLINATION":"53.0558","LAUNCH_DATE":"2020-06-13","EPHEMERIS_TYPE":"0","NORAD_CAT_ID":"45766","GP_ID":"187628986"},{"COUNTRY_CODE":"US","OBJECT_ID":"2020-038AP","EPOCH":"2021-10-19T22:07:38.362656","OBJECT_TYPE":"PAYLOAD","REF_FRAME":"TEME","MEAN_MOTION_DDOT":"0.0000000000000","MEAN_ANOMALY":"288.0066","ARG_OF_PERICENTER":"72.1105","ELEMENT_SET_NO":"999","BSTAR":"-0.00002319900000","ECCENTRICITY":"0.00016670","DECAY_DATE":null,"TLE_LINE2":"2 45767  53.0546 207.2384 0001667  72.1105 288.0066 15.06400107 75046","PERIAPSIS":"546.059","REV_AT_EPOCH":"7504","CENTER_NAME":"EARTH","EPHEMERIS_TYPE":"0","LAUNCH_DATE":"2020-06-13","GP_ID":"187629231","NORAD_CAT_ID":"45767","TLE_LINE1":"1 45767U 20038AP  21292.92197179 -.00000627  00000-0 -23199-4 0  9998","INCLINATION":"53.0546","FILE":"3172644","MEAN_MOTION":"15.06400107","OBJECT_NAME":"STARLINK-1511","TIME_SYSTEM":"UTC","SEMIMAJOR_AXIS":"6925.348","MEAN_MOTION_DOT":"-0.00000627","RCS_SIZE":"LARGE","PERIOD":"95.592","MEAN_ELEMENT_THEORY":"SGP4","CLASSIFICATION_TYPE":"U","RA_OF_ASC_NODE":"207.2384","SITE":"AFETR","APOAPSIS":"548.368"},{"BSTAR":"-0.00006777100000","ECCENTRICITY":"0.00016270","ELEMENT_SET_NO":"999","TLE_LINE2":"2 45768  53.0549 207.3243 0001627  74.4387 285.6782 15.06404769 75055","DECAY_DATE":null,"ARG_OF_PERICENTER":"74.4387","REV_AT_EPOCH":"7505","CENTER_NAME":"EARTH","PERIAPSIS":"546.072","EPOCH":"2021-10-19T21:41:05.703936","OBJECT_TYPE":"PAYLOAD","COUNTRY_CODE":"US","OBJECT_ID":"2020-038AQ","MEAN_ANOMALY":"285.6782","MEAN_MOTION_DDOT":"0.0000000000000","REF_FRAME":"TEME","MEAN_MOTION_DOT":"-0.00001291","RCS_SIZE":"LARGE","SEMIMAJOR_AXIS":"6925.334","PERIOD":"95.592","OBJECT_NAME":"STARLINK-1521","TIME_SYSTEM":"UTC","APOAPSIS":"548.326","MEAN_ELEMENT_THEORY":"SGP4","SITE":"AFETR","RA_OF_ASC_NODE":"207.3243","CLASSIFICATION_TYPE":"U","GP_ID":"187628484","NORAD_CAT_ID":"45768","LAUNCH_DATE":"2020-06-13","EPHEMERIS_TYPE":"0","MEAN_MOTION":"15.06404769","FILE":"3172644","INCLINATION":"53.0549","TLE_LINE1":"1 45768U 20038AQ  21292.90353824 -.00001291  00000-0 -67771-4 0  9990"},{"TLE_LINE2":"2 45769  53.0546 229.0020 0001759  63.7071 296.4099 15.06406353 74718","DECAY_DATE":null,"BSTAR":"0.00003594500000","ECCENTRICITY":"0.00017590","ELEMENT_SET_NO":"999","ARG_OF_PERICENTER":"63.7071","CENTER_NAME":"EARTH","REV_AT_EPOCH":"7471","PERIAPSIS":"545.976","OBJECT_TYPE":"PAYLOAD","EPOCH":"2021-10-19T12:42:22.014144","OBJECT_ID":"2020-038AR","COUNTRY_CODE":"US","MEAN_MOTION_DDOT":"0.0000000000000","MEAN_ANOMALY":"296.4099","REF_FRAME":"TEME","PERIOD":"95.592","MEAN_MOTION_DOT":"0.00000254","RCS_SIZE":"LARGE","SEMIMAJOR_AXIS":"6925.329","TIME_SYSTEM":"UTC","OBJECT_NAME":"STARLINK-1459","APOAPSIS":"548.412","SITE":"AFETR","RA_OF_ASC_NODE":"229.0020","CLASSIFICATION_TYPE":"U","MEAN_ELEMENT_THEORY":"SGP4","GP_ID":"187569189","NORAD_CAT_ID":"45769","LAUNCH_DATE":"2020-06-13","EPHEMERIS_TYPE":"0","MEAN_MOTION":"15.06406353","FILE":"3171120","INCLINATION":"53.0546","TLE_LINE1":"1 45769U 20038AR  21292.52942146  .00000254  00000-0  35945-4 0  9994"},{"TLE_LINE1":"1 45770U 20038AS  21292.93023294 -.00006322  00000-0 -40552-3 0  9998","INCLINATION":"53.0549","FILE":"3172644","MEAN_MOTION":"15.06429983","EPHEMERIS_TYPE":"0","LAUNCH_DATE":"2020-06-13","NORAD_CAT_ID":"45770","GP_ID":"187629486","MEAN_ELEMENT_THEORY":"SGP4","RA_OF_ASC_NODE":"187.2061","CLASSIFICATION_TYPE":"U","SITE":"AFETR","APOAPSIS":"548.861","OBJECT_NAME":"STARLINK-1462","TIME_SYSTEM":"UTC","SEMIMAJOR_AXIS":"6925.257","MEAN_MOTION_DOT":"-0.00006322","RCS_SIZE":"LARGE","PERIOD":"95.590","REF_FRAME":"TEME","MEAN_ANOMALY":"290.7790","MEAN_MOTION_DDOT":"0.0000000000000","COUNTRY_CODE":"US","OBJECT_ID":"2020-038AS","EPOCH":"2021-10-19T22:19:32.126016","OBJECT_TYPE":"PAYLOAD","PERIAPSIS":"545.382","REV_AT_EPOCH":"7532","CENTER_NAME":"EARTH","ARG_OF_PERICENTER":"69.3468","ELEMENT_SET_NO":"999","BSTAR":"-0.00040552000000","ECCENTRICITY":"0.00025120","DECAY_DATE":null,"TLE_LINE2":"2 45770  53.0549 187.2061 0002512  69.3468 290.7790 15.06429983 75320"},{"MEAN_ANOMALY":"296.0710","MEAN_MOTION_DDOT":"0.0000000000000","REF_FRAME":"TEME","OBJECT_TYPE":"PAYLOAD","EPOCH":"2021-10-19T22:10:17.570208","OBJECT_ID":"2020-038AT","COUNTRY_CODE":"US","CENTER_NAME":"EARTH","REV_AT_EPOCH":"7532","PERIAPSIS":"545.986","TLE_LINE2":"2 45771  53.0538 187.2316 0001735  64.0457 296.0710 15.06408408 75328","DECAY_DATE":null,"BSTAR":"0.00007806300000","ECCENTRICITY":"0.00017350","ELEMENT_SET_NO":"999","ARG_OF_PERICENTER":"64.0457","FILE":"3172644","MEAN_MOTION":"15.06408408","INCLINATION":"53.0538","TLE_LINE1":"1 45771U 20038AT  21292.92381447  .00000882  00000-0  78063-4 0  9997","NORAD_CAT_ID":"45771","GP_ID":"187629731","LAUNCH_DATE":"2020-06-13","EPHEMERIS_TYPE":"0","APOAPSIS":"548.389","SITE":"AFETR","CLASSIFICATION_TYPE":"U","RA_OF_ASC_NODE":"187.2316","MEAN_ELEMENT_THEORY":"SGP4","PERIOD":"95.592","MEAN_MOTION_DOT":"0.00000882","RCS_SIZE":"LARGE","SEMIMAJOR_AXIS":"6925.323","TIME_SYSTEM":"UTC","OBJECT_NAME":"STARLINK-1463"}];
